OBJECT_NAME,OBJECT_ID,EPOCH,MEAN_MOTION,ECCENTRICITY,INCLINATION,RA_OF_ASC_NODE,ARG_OF_PERICENTER,MEAN_ANOMALY,EPHEMERIS_TYPE,CLASSIFICATION_TYPE,NORAD_CAT_ID,ELEMENT_SET_NO,REV_AT_EPOCH,BSTAR,MEAN_MOTION_DOT,MEAN_MOTION_DDOT
GEOSCAN 3 (RS92S3),2025-155T,2026-06-05T18:52:26.434848,15.35002108,.0004989,97.4538,126.5343,199.3576,160.7478,0,U,64893,999,7910,.60335E-3,.20444E-3,0
INNOSAT 3 (RS92S0),2025-155U,2026-06-05T18:32:15.141408,15.42999165,.0004368,97.4489,128.0026,181.5881,178.5354,0,U,64894,999,7920,.95647E-3,.4225E-3,0
KNACKSAT-2,1998-067XZ,2026-06-05T02:39:22.539456,15.58840087,.00107425,51.6316,355.1703,163.6532,196.4809,0,U,67683,999,1839,.6916844E-3,.54547E-3,0
