KNACKSAT-2              
1 67683U 98067XZ  26156.11067754  .00054547  00000+0  69168-3 0  9998
2 67683  51.6316 355.1703 0010742 163.6532 196.4809 15.58840087 18392
GEOSCAN 3 (RS92S3)      
1 64893U 25155T   26156.78641707  .00020444  00000+0  60335-3 0  9991
2 64893  97.4538 126.5343 0004989 199.3576 160.7478 15.35002108 79107
INNOSAT 3 (RS92S0)      
1 64894U 25155U   26156.77239747  .00042250  00000+0  95647-3 0  9991
2 64894  97.4489 128.0026 0004368 181.5881 178.5354 15.42999165 79208
